ONEWEB-0080             
1 45426U 20020C   24153.54751795 -.00000193  00000+0 -58121-3 0  9997
2 45426  87.8963 169.4251 0002487  90.1109 270.0304 13.11417090204978
ONEWEB-0090             
1 45427U 20020D   24153.56448169  .00000470  00000+0  12908-2 0  9996
2 45427  87.8968 169.4042 0002023  89.7550 270.3809 13.11416811204942
ONEWEB-0061             
1 45428U 20020E   24153.59668911 -.00000242  00000+0 -71730-3 0  9997
2 45428  87.8959 169.3968 0002122  91.7704 268.3667 13.11413413204903
ONEWEB-0081             
1 45429U 20020F   24153.57804889  .00000506  00000+0  13911-2 0  9999
2 45429  87.8961 169.4180 0002125  97.9055 262.2314 13.11414539205019
ONEWEB-0069             
1 45430U 20020G   24153.56789286  .00000573  00000+0  15806-2 0  9992
2 45430  87.8964 169.4086 0002128  89.0193 271.1179 13.11418007204940
ONEWEB-0031             
1 45431U 20020H   24153.53903731 -.00000476  00000+0 -13802-2 0  9991
2 45431  87.8970 169.4219 0001861  87.0428 273.0912 13.11417308204925
ONEWEB-0027             
1 45432U 20020J   24153.53728546  .00000033  00000+0  51114-4 0  9998
2 45432  87.9157 154.2793 0001906  76.9650 283.1695 13.17647960208162
ONEWEB-0064             
1 45433U 20020K   24153.53734075 -.00000467  00000+0 -13539-2 0  9993
2 45433  87.8964 169.4313 0002207  83.5866 276.5513 13.11415331204960
